{
    "links": {
        "self": "http://www.neowsapp.com/rest/v1/neo/3838862?api_key=iIulBulltgU6a56xZRHN4H3l9WmuAYTsLGpBGhQ2"
    },
    "id": "3838862",
    "neo_reference_id": "3838862",
    "name": "(2019 DO1)",
    "designation": "2019 DO1",
    "nasa_jpl_url": "http://ssd.jpl.nasa.gov/sbdb.cgi?sstr=3838862",
    "absolute_magnitude_h": 24.1,
    "estimated_diameter": {
        "kilometers": {
            "estimated_diameter_min": 0.040230458,
            "estimated_diameter_max": 0.0899580388
        },
        "meters": {
            "estimated_diameter_min": 40.2304579834,
            "estimated_diameter_max": 89.9580388169
        },
        "miles": {
            "estimated_diameter_min": 0.0249980399,
            "estimated_diameter_max": 0.0558973165
        },
        "feet": {
            "estimated_diameter_min": 131.9896957704,
            "estimated_diameter_max": 295.1379320721
        }
    },
    "is_potentially_hazardous_asteroid": false,
    "close_approach_data": [
        {
            "close_approach_date": "2019-02-08",
            "close_approach_date_full": "2019-Feb-08 18:06",
            "epoch_date_close_approach": 1549649160000,
            "relative_velocity": {
                "kilometers_per_second": "7.4821405479",
                "kilometers_per_hour": "26935.7059723856",
                "miles_per_hour": "16736.8001915637"
            },
            "miss_distance": {
                "astronomical": "0.1011339331",
                "lunar": "39.3410999759",
                "kilometers": "15129420.976482497",
                "miles": "9400986.2652605786"
            },
            "orbiting_body": "Earth"
        }
    ],
    "orbital_data": {
        "orbit_id": "8",
        "orbit_determination_date": "2019-03-27 07:28:14",
        "first_observation_date": "2019-02-28",
        "last_observation_date": "2019-03-26",
        "data_arc_in_days": 26,
        "observations_used": 56,
        "orbit_uncertainty": "7",
        "minimum_orbit_intersection": ".0923912",
        "jupiter_tisserand_invariant": "3.708",
        "epoch_osculation": "2459000.5",
        "eccentricity": ".4803943973222113",
        "semi_major_axis": "1.976511598357784",
        "inclination": "5.819433820642647",
        "ascending_node_longitude": "177.6986025486037",
        "orbital_period": "1014.956613092739",
        "perihelion_distance": "1.027006500264336",
        "perihelion_argument": "297.5601341160083",
        "aphelion_distance": "2.926016696451232",
        "perihelion_time": "2458504.267318926503",
        "mean_anomaly": "176.0112332704568",
        "mean_motion": ".3546949646478198",
        "equinox": "J2000",
        "orbit_class": {
            "orbit_class_type": "AMO",
            "orbit_class_description": "Near-Earth asteroid orbits similar to that of 1221 Amor",
            "orbit_class_range": "1.017 AU < q (perihelion) < 1.3 AU"
        }
    },
    "is_sentry_object": false
}